[{"OBJECT_NAME":"STARLINK-3197","OBJECT_ID":"2021-115AK","EPOCH":"2026-03-09T11:34:01.878816","MEAN_MOTION":15.08839558,"ECCENTRICITY":0.00013711,"INCLINATION":53.2177,"RA_OF_ASC_NODE":140.0638,"ARG_OF_PERICENTER":100.0108,"MEAN_ANOMALY":260.1039,"EPHEMERIS_TYPE":0,"CLASSIFICATION_TYPE":"U","NORAD_CAT_ID":49757,"ELEMENT_SET_NO":999,"REV_AT_EPOCH":23564,"BSTAR":-3.5980162e-5,"MEAN_MOTION_DOT":-8.6e-6,"MEAN_MOTION_DDOT":0},{"OBJECT_NAME":"ICEYE-X66","OBJECT_ID":"2025-248J","EPOCH":"2026-03-09T21:44:57.261984","MEAN_MOTION":15.08170847,"ECCENTRICITY":0.00050662,"INCLINATION":45.4014,"RA_OF_ASC_NODE":296.227,"ARG_OF_PERICENTER":203.4375,"MEAN_ANOMALY":156.6276,"EPHEMERIS_TYPE":0,"CLASSIFICATION_TYPE":"U","NORAD_CAT_ID":66301,"ELEMENT_SET_NO":999,"REV_AT_EPOCH":2051,"BSTAR":0.00021374435,"MEAN_MOTION_DOT":3.108e-5,"MEAN_MOTION_DDOT":0}]
